STARLINK-36704          
1 67697U 26025E   26055.58337963 -.01523323  00000+0 -11047-1 0  9996
2 67697  97.2840 166.4903 0001637  66.6604 354.9045 15.76341412  3749
STARLINK-36697          
1 67698U 26025F   26055.58337963 -.00036022  00000+0 -18805-3 0  9992
2 67698  97.2835 166.4963 0001461  91.8473 345.1731 15.80820816  3692
STARLINK-36716          
1 67699U 26025G   26055.58337963 -.00036736  00000+0 -19167-3 0  9997
2 67699  97.2836 166.4997 0001334 107.0801 339.7618 15.80836288  3902
STARLINK-36712          
1 67700U 26025H   26055.58337963 -.00133233  00000+0 -70350-3 0  9991
2 67700  97.2835 166.5042 0001181  84.3062  12.1623 15.80877650  3694
STARLINK-36713          
1 67701U 26025J   26055.58337963 -.01907725  00000+0 -12715-1 0  9997
2 67701  97.2837 166.5064 0001826  73.5221  30.2364 15.78426851  3901
STARLINK-36695          
1 67702U 26025K   26055.58337963 -.00152111  00000+0 -10362-2 0  9995
2 67702  97.2781 166.5022 0001579  78.4237  17.8818 15.75210089  3748
STARLINK-36630          
1 67703U 26025L   26055.58337963 -.00154861  00000+0 -82178-3 0  9995
2 67703  97.2827 166.5147 0001486 106.2598  15.9943 15.80824850  3746
STARLINK-36338          
1 67704U 26025M   26055.58337963  .00056256  00000+0  29294-3 0  9993
2 67704  97.2821 166.5176 0001150 105.7430  27.0460 15.80786531  3796
STARLINK-36316          
1 67705U 26025N   26055.58337963 -.01922039  00000+0 -12159-1 0  9998
2 67705  97.2801 166.5263 0001814  84.5389  69.4044 15.79599843  3790
STARLINK-36707          
1 67706U 26025P   26055.58337963  .00012660  00000+0  66818-4 0  9990
2 67706  97.2822 166.5311 0000918  71.4648  94.6488 15.80789578  3582
STARLINK-36645          
1 67707U 26025Q   26055.58337963 -.01848672  00000+0 -13116-1 0  9994
2 67707  97.2787 166.5196 0001722  70.1956  68.7175 15.76932806  3355
STARLINK-36287          
1 67708U 26025R   26055.58337963  .00072705  00000+0  37769-3 0  9990
2 67708  97.2814 166.5339 0001291 109.0211  67.1319 15.80784748  3902
