CCSDS_OMM_VERS = 2.0
CREATION_DATE  = 
ORIGINATOR     = 

OBJECT_NAME    = STARLINK-36704
OBJECT_ID      = 2026-025E
CENTER_NAME    = EARTH
REF_FRAME      = TEME
TIME_SYSTEM    = UTC
MEAN_ELEMENT_THEORY = SGP/SGP4

EPOCH          = 2026-02-24T14:00:04.000032
MEAN_MOTION    = 15.76341412
ECCENTRICITY   = .00016379
INCLINATION    = 97.2840
RA_OF_ASC_NODE = 166.4903
ARG_OF_PERICENTER = 66.6604
MEAN_ANOMALY   = 354.9045

EPHEMERIS_TYPE = 0
CLASSIFICATION_TYPE = U
NORAD_CAT_ID   = 67697
ELEMENT_SET_NO = 999
REV_AT_EPOCH   = 374
BSTAR          = -.11047071E-1
MEAN_MOTION_DOT = -.1523323E-1
MEAN_MOTION_DDOT = 0

CCSDS_OMM_VERS = 2.0
CREATION_DATE  = 
ORIGINATOR     = 

OBJECT_NAME    = STARLINK-36697
OBJECT_ID      = 2026-025F
CENTER_NAME    = EARTH
REF_FRAME      = TEME
TIME_SYSTEM    = UTC
MEAN_ELEMENT_THEORY = SGP/SGP4

EPOCH          = 2026-02-24T14:00:04.000032
MEAN_MOTION    = 15.80820816
ECCENTRICITY   = .00014614
INCLINATION    = 97.2835
RA_OF_ASC_NODE = 166.4963
ARG_OF_PERICENTER = 91.8473
MEAN_ANOMALY   = 345.1731

EPHEMERIS_TYPE = 0
CLASSIFICATION_TYPE = U
NORAD_CAT_ID   = 67698
ELEMENT_SET_NO = 999
REV_AT_EPOCH   = 369
BSTAR          = -.18804755E-3
MEAN_MOTION_DOT = -.36022E-3
MEAN_MOTION_DDOT = 0

CCSDS_OMM_VERS = 2.0
CREATION_DATE  = 
ORIGINATOR     = 

OBJECT_NAME    = STARLINK-36716
OBJECT_ID      = 2026-025G
CENTER_NAME    = EARTH
REF_FRAME      = TEME
TIME_SYSTEM    = UTC
MEAN_ELEMENT_THEORY = SGP/SGP4

EPOCH          = 2026-02-24T14:00:04.000032
MEAN_MOTION    = 15.80836288
ECCENTRICITY   = .00013344
INCLINATION    = 97.2836
RA_OF_ASC_NODE = 166.4997
ARG_OF_PERICENTER = 107.0801
MEAN_ANOMALY   = 339.7618

EPHEMERIS_TYPE = 0
CLASSIFICATION_TYPE = U
NORAD_CAT_ID   = 67699
ELEMENT_SET_NO = 999
REV_AT_EPOCH   = 390
BSTAR          = -.19167049E-3
MEAN_MOTION_DOT = -.36736E-3
MEAN_MOTION_DDOT = 0

CCSDS_OMM_VERS = 2.0
CREATION_DATE  = 
ORIGINATOR     = 

OBJECT_NAME    = STARLINK-36712
OBJECT_ID      = 2026-025H
CENTER_NAME    = EARTH
REF_FRAME      = TEME
TIME_SYSTEM    = UTC
MEAN_ELEMENT_THEORY = SGP/SGP4

EPOCH          = 2026-02-24T14:00:04.000032
MEAN_MOTION    = 15.80877650
ECCENTRICITY   = .00011819
INCLINATION    = 97.2835
RA_OF_ASC_NODE = 166.5042
ARG_OF_PERICENTER = 84.3062
MEAN_ANOMALY   = 12.1623

EPHEMERIS_TYPE = 0
CLASSIFICATION_TYPE = U
NORAD_CAT_ID   = 67700
ELEMENT_SET_NO = 999
REV_AT_EPOCH   = 369
BSTAR          = -.70349585E-3
MEAN_MOTION_DOT = -.133233E-2
MEAN_MOTION_DDOT = 0

CCSDS_OMM_VERS = 2.0
CREATION_DATE  = 
ORIGINATOR     = 

OBJECT_NAME    = STARLINK-36713
OBJECT_ID      = 2026-025J
CENTER_NAME    = EARTH
REF_FRAME      = TEME
TIME_SYSTEM    = UTC
MEAN_ELEMENT_THEORY = SGP/SGP4

EPOCH          = 2026-02-24T14:00:04.000032
MEAN_MOTION    = 15.78426851
ECCENTRICITY   = .00018267
INCLINATION    = 97.2837
RA_OF_ASC_NODE = 166.5064
ARG_OF_PERICENTER = 73.5221
MEAN_ANOMALY   = 30.2364

EPHEMERIS_TYPE = 0
CLASSIFICATION_TYPE = U
NORAD_CAT_ID   = 67701
ELEMENT_SET_NO = 999
REV_AT_EPOCH   = 390
BSTAR          = -.12715211E-1
MEAN_MOTION_DOT = -.1907725E-1
MEAN_MOTION_DDOT = 0

CCSDS_OMM_VERS = 2.0
CREATION_DATE  = 
ORIGINATOR     = 

OBJECT_NAME    = STARLINK-36695
OBJECT_ID      = 2026-025K
CENTER_NAME    = EARTH
REF_FRAME      = TEME
TIME_SYSTEM    = UTC
MEAN_ELEMENT_THEORY = SGP/SGP4

EPOCH          = 2026-02-24T14:00:04.000032
MEAN_MOTION    = 15.75210089
ECCENTRICITY   = .00015791
INCLINATION    = 97.2781
RA_OF_ASC_NODE = 166.5022
ARG_OF_PERICENTER = 78.4237
MEAN_ANOMALY   = 17.8818

EPHEMERIS_TYPE = 0
CLASSIFICATION_TYPE = U
NORAD_CAT_ID   = 67702
ELEMENT_SET_NO = 999
REV_AT_EPOCH   = 374
BSTAR          = -.10362419E-2
MEAN_MOTION_DOT = -.152111E-2
MEAN_MOTION_DDOT = 0

CCSDS_OMM_VERS = 2.0
CREATION_DATE  = 
ORIGINATOR     = 

OBJECT_NAME    = STARLINK-36630
OBJECT_ID      = 2026-025L
CENTER_NAME    = EARTH
REF_FRAME      = TEME
TIME_SYSTEM    = UTC
MEAN_ELEMENT_THEORY = SGP/SGP4

EPOCH          = 2026-02-24T14:00:04.000032
MEAN_MOTION    = 15.80824850
ECCENTRICITY   = .00014867
INCLINATION    = 97.2827
RA_OF_ASC_NODE = 166.5147
ARG_OF_PERICENTER = 106.2598
MEAN_ANOMALY   = 15.9943

EPHEMERIS_TYPE = 0
CLASSIFICATION_TYPE = U
NORAD_CAT_ID   = 67703
ELEMENT_SET_NO = 999
REV_AT_EPOCH   = 374
BSTAR          = -.8217773E-3
MEAN_MOTION_DOT = -.154861E-2
MEAN_MOTION_DDOT = 0

CCSDS_OMM_VERS = 2.0
CREATION_DATE  = 
ORIGINATOR     = 

OBJECT_NAME    = STARLINK-36338
OBJECT_ID      = 2026-025M
CENTER_NAME    = EARTH
REF_FRAME      = TEME
TIME_SYSTEM    = UTC
MEAN_ELEMENT_THEORY = SGP/SGP4

EPOCH          = 2026-02-24T14:00:04.000032
MEAN_MOTION    = 15.80786531
ECCENTRICITY   = .00011508
INCLINATION    = 97.2821
RA_OF_ASC_NODE = 166.5176
ARG_OF_PERICENTER = 105.7430
MEAN_ANOMALY   = 27.0460

EPHEMERIS_TYPE = 0
CLASSIFICATION_TYPE = U
NORAD_CAT_ID   = 67704
ELEMENT_SET_NO = 999
REV_AT_EPOCH   = 379
BSTAR          = .2929391E-3
MEAN_MOTION_DOT = .56256E-3
MEAN_MOTION_DDOT = 0

CCSDS_OMM_VERS = 2.0
CREATION_DATE  = 
ORIGINATOR     = 

OBJECT_NAME    = STARLINK-36316
OBJECT_ID      = 2026-025N
CENTER_NAME    = EARTH
REF_FRAME      = TEME
TIME_SYSTEM    = UTC
MEAN_ELEMENT_THEORY = SGP/SGP4

EPOCH          = 2026-02-24T14:00:04.000032
MEAN_MOTION    = 15.79599843
ECCENTRICITY   = .00018144
INCLINATION    = 97.2801
RA_OF_ASC_NODE = 166.5263
ARG_OF_PERICENTER = 84.5389
MEAN_ANOMALY   = 69.4044

EPHEMERIS_TYPE = 0
CLASSIFICATION_TYPE = U
NORAD_CAT_ID   = 67705
ELEMENT_SET_NO = 999
REV_AT_EPOCH   = 379
BSTAR          = -.12158886E-1
MEAN_MOTION_DOT = -.1922039E-1
MEAN_MOTION_DDOT = 0

CCSDS_OMM_VERS = 2.0
CREATION_DATE  = 
ORIGINATOR     = 

OBJECT_NAME    = STARLINK-36707
OBJECT_ID      = 2026-025P
CENTER_NAME    = EARTH
REF_FRAME      = TEME
TIME_SYSTEM    = UTC
MEAN_ELEMENT_THEORY = SGP/SGP4

EPOCH          = 2026-02-24T14:00:04.000032
MEAN_MOTION    = 15.80789578
ECCENTRICITY   = .00009189
INCLINATION    = 97.2822
RA_OF_ASC_NODE = 166.5311
ARG_OF_PERICENTER = 71.4648
MEAN_ANOMALY   = 94.6488

EPHEMERIS_TYPE = 0
CLASSIFICATION_TYPE = U
NORAD_CAT_ID   = 67706
ELEMENT_SET_NO = 999
REV_AT_EPOCH   = 358
BSTAR          = .66818304E-4
MEAN_MOTION_DOT = .1266E-3
MEAN_MOTION_DDOT = 0

CCSDS_OMM_VERS = 2.0
CREATION_DATE  = 
ORIGINATOR     = 

OBJECT_NAME    = STARLINK-36645
OBJECT_ID      = 2026-025Q
CENTER_NAME    = EARTH
REF_FRAME      = TEME
TIME_SYSTEM    = UTC
MEAN_ELEMENT_THEORY = SGP/SGP4

EPOCH          = 2026-02-24T14:00:04.000032
MEAN_MOTION    = 15.76932806
ECCENTRICITY   = .00017222
INCLINATION    = 97.2787
RA_OF_ASC_NODE = 166.5196
ARG_OF_PERICENTER = 70.1956
MEAN_ANOMALY   = 68.7175

EPHEMERIS_TYPE = 0
CLASSIFICATION_TYPE = U
NORAD_CAT_ID   = 67707
ELEMENT_SET_NO = 999
REV_AT_EPOCH   = 335
BSTAR          = -.13116056E-1
MEAN_MOTION_DOT = -.1848672E-1
MEAN_MOTION_DDOT = 0

CCSDS_OMM_VERS = 2.0
CREATION_DATE  = 
ORIGINATOR     = 

OBJECT_NAME    = STARLINK-36287
OBJECT_ID      = 2026-025R
CENTER_NAME    = EARTH
REF_FRAME      = TEME
TIME_SYSTEM    = UTC
MEAN_ELEMENT_THEORY = SGP/SGP4

EPOCH          = 2026-02-24T14:00:04.000032
MEAN_MOTION    = 15.80784748
ECCENTRICITY   = .00012911
INCLINATION    = 97.2814
RA_OF_ASC_NODE = 166.5339
ARG_OF_PERICENTER = 109.0211
MEAN_ANOMALY   = 67.1319

EPHEMERIS_TYPE = 0
CLASSIFICATION_TYPE = U
NORAD_CAT_ID   = 67708
ELEMENT_SET_NO = 999
REV_AT_EPOCH   = 390
BSTAR          = .37769019E-3
MEAN_MOTION_DOT = .72705E-3
MEAN_MOTION_DDOT = 0

